STARLINK-31458          
1 59501U 24071T   26068.14284448 -.00003961  00000+0 -13457-3 0  9994
2 59501  43.0047 342.6879 0000983 249.2821 110.7925 15.27563458108120
BLUEBON                 
1 62688U 25009CH  26068.70316231  .00010452  00000+0  37313-3 0  9992
2 62688  97.4017 152.2033 0001193  43.3900 316.7434 15.29047253 63767
